GOES 1 [-]              
1 08366U 75100A   09077.73513835 -.00000194  00000-0  10000-3 0  8385
2 08366  14.3869 348.5541 0004741 284.0691  75.8768  1.00311195122043
GOES 2 [-]              
1 10061U 77048A   09077.99237518 -.00000113  00000-0  10000-3 0  7720
2 10061  14.6357 356.9971 0018526 254.8838 104.9069  0.99401117 60902
GOES 3 [P]              
1 10953U 78062A   09077.79516254 -.00000133  00000-0  10000-3 0  4361
2 10953  14.3294   0.8187 0003816 331.0233  28.9514  1.00269444 65763
GOES 4 [-]              
1 11964U 80074A   09078.10455124 -.00000310  00000-0  10000-3 0   985
2 11964  14.6660   4.5157 0037686 292.4408  67.1546  0.99233577 65136
GOES 5 [-]              
1 12472U 81049A   09077.73717331 -.00000291  00000-0  10000-3 0  1329
2 12472  13.5945  15.0391 0003095 241.6639 118.2992  1.00266109 59801
GOES 6 [-]              
1 14050U 83041A   09077.79092905 -.00000247  00000-0  10000-3 0  1338
2 14050  13.2313  20.1484 0002825 293.2574  66.7129  1.00305089152907
GOES 7 [-]              
1 17561U 87022A   09076.23635299  .00000062  00000-0  10000-3 0  8665
2 17561  11.9318  38.0465 0001550 195.0785 211.8213  1.00280305 63991
GOES 8 [-]              
1 23051U 94022A   09078.57104674  .00000057  00000-0  10000-3 0  7169
2 23051   5.5233  74.9059 0007865 187.2402 172.9264  0.98903627 61838
GOES 9 [P]              
1 23581U 95025A   09078.75116250 -.00000223  00000-0  10000-3 0  9960
2 23581   5.0858  71.7316 0004310 263.8711  96.2718  0.98802730 50542
GOES 10 [+]             
1 24786U 97019A   09078.39562499 -.00000289  00000-0  10000-3 0  8234
2 24786   3.4082  75.7165 0003890 291.8661 252.3381  1.00267004 43607
GOES 11 [+]             
1 26352U 00022A   09077.10182052  .00000084  00000-0  10000-3 0  2308
2 26352   0.2123  88.5896 0002800 228.4351 119.8584  1.00268376 32494
GOES 12 [+]             
1 26871U 01031A   09078.29730869 -.00000257  00000-0  10000-3 0  9794
2 26871   0.2069 260.1018 0002856 139.4052 169.6354  1.00278453 28101
GOES 13 [S]             
1 29155U 06018A   09078.33238366 -.00000098  00000-0  00000+0 0  5909
2 29155   0.3677 255.7703 0002335 354.7186 301.6009  1.00268713 10359
